{
    "links": {
        "self": "http://www.neowsapp.com/rest/v1/neo/3781893?api_key=iIulBulltgU6a56xZRHN4H3l9WmuAYTsLGpBGhQ2"
    },
    "id": "3781893",
    "neo_reference_id": "3781893",
    "name": "(2017 SG16)",
    "designation": "2017 SG16",
    "nasa_jpl_url": "http://ssd.jpl.nasa.gov/sbdb.cgi?sstr=3781893",
    "absolute_magnitude_h": 26.5,
    "estimated_diameter": {
        "kilometers": {
            "estimated_diameter_min": 0.0133215567,
            "estimated_diameter_max": 0.0297879063
        },
        "meters": {
            "estimated_diameter_min": 13.3215566698,
            "estimated_diameter_max": 29.7879062798
        },
        "miles": {
            "estimated_diameter_min": 0.008277629,
            "estimated_diameter_max": 0.0185093411
        },
        "feet": {
            "estimated_diameter_min": 43.7058959846,
            "estimated_diameter_max": 97.7293544391
        }
    },
    "is_potentially_hazardous_asteroid": false,
    "close_approach_data": [
        {
            "close_approach_date": "2017-09-19",
            "close_approach_date_full": "2017-Sep-19 02:47",
            "epoch_date_close_approach": 1505789220000,
            "relative_velocity": {
                "kilometers_per_second": "6.8603443267",
                "kilometers_per_hour": "24697.2395760002",
                "miles_per_hour": "15345.9042243208"
            },
            "miss_distance": {
                "astronomical": "0.0330378807",
                "lunar": "12.8517355923",
                "kilometers": "4942396.582034109",
                "miles": "3071062.8290003442"
            },
            "orbiting_body": "Earth"
        },
        {
            "close_approach_date": "2133-11-08",
            "close_approach_date_full": "2133-Nov-08 20:37",
            "epoch_date_close_approach": 5170768620000,
            "relative_velocity": {
                "kilometers_per_second": "17.3513765872",
                "kilometers_per_hour": "62464.9557140644",
                "miles_per_hour": "38813.2942879974"
            },
            "miss_distance": {
                "astronomical": "0.3558594834",
                "lunar": "138.4293390426",
                "kilometers": "53235820.735940358",
                "miles": "33079205.1021906204"
            },
            "orbiting_body": "Earth"
        }
    ],
    "orbital_data": {
        "orbit_id": "2",
        "orbit_determination_date": "2017-12-26 06:23:35",
        "first_observation_date": "2017-09-24",
        "last_observation_date": "2017-09-30",
        "data_arc_in_days": 6,
        "observations_used": 30,
        "orbit_uncertainty": "8",
        "minimum_orbit_intersection": ".0330051",
        "jupiter_tisserand_invariant": "3.365",
        "epoch_osculation": "2458022.5",
        "eccentricity": ".5508238066293011",
        "semi_major_axis": "2.308902687048886",
        "inclination": "2.096242992707616",
        "ascending_node_longitude": "351.1339081957973",
        "orbital_period": "1281.465358790962",
        "perihelion_distance": "1.037104119831997",
        "perihelion_argument": "7.578668988761436",
        "aphelion_distance": "3.580701254265776",
        "perihelion_time": "2458017.847713380893",
        "mean_anomaly": "1.306959389412355",
        "mean_motion": ".2809283899329538",
        "equinox": "J2000",
        "orbit_class": {
            "orbit_class_type": "AMO",
            "orbit_class_description": "Near-Earth asteroid orbits similar to that of 1221 Amor",
            "orbit_class_range": "1.017 AU < q (perihelion) < 1.3 AU"
        }
    },
    "is_sentry_object": false
}